{
  "type": "FeatureCollection",
  "name": "MetroBasinRoadNetwork",
  "crs": { "type": "name", "properties": { "name": "urn:ogc:def:crs:OGC:1.3:CRS84" } },
  "features": [
    {
      "type": "Feature",
      "properties": { "id": "R_001", "name": "Downtown Arterial South", "speed_kmh": 45, "is_elevated": false },
      "geometry": { "type": "LineString", "coordinates": [[72.870, 19.062], [72.873, 19.068]] }
    },
    {
      "type": "Feature",
      "properties": { "id": "R_002", "name": "Milan Subway Approach South", "speed_kmh": 40, "is_elevated": false },
      "geometry": { "type": "LineString", "coordinates": [[72.873, 19.068], [72.874, 19.073]] }
    },
    {
      "type": "Feature",
      "properties": { "id": "R_003", "name": "Milan Subway Underpass", "speed_kmh": 40, "is_elevated": false },
      "geometry": { "type": "LineString", "coordinates": [[72.874, 19.073], [72.874, 19.077]] }
    },
    {
      "type": "Feature",
      "properties": { "id": "R_004", "name": "Airport Central Boulevard", "speed_kmh": 55, "is_elevated": false },
      "geometry": { "type": "LineString", "coordinates": [[72.874, 19.077], [72.868, 19.088]] }
    },
    {
      "type": "Feature",
      "properties": { "id": "R_005", "name": "Southern Link to Elevated Expressway", "speed_kmh": 50, "is_elevated": false },
      "geometry": { "type": "LineString", "coordinates": [[72.870, 19.062], [72.888, 19.064]] }
    },
    {
      "type": "Feature",
      "properties": { "id": "R_006", "name": "Eastern Foothill Viaduct", "speed_kmh": 65, "is_elevated": true },
      "geometry": { "type": "LineString", "coordinates": [[72.888, 19.064], [72.895, 19.070]] }
    },
    {
      "type": "Feature",
      "properties": { "id": "R_007", "name": "Emergency Hospital Flyover", "speed_kmh": 60, "is_elevated": true },
      "geometry": { "type": "LineString", "coordinates": [[72.895, 19.070], [72.888, 19.076]] }
    },
    {
      "type": "Feature",
      "properties": { "id": "R_008", "name": "Elevated Expressway Central", "speed_kmh": 70, "is_elevated": true },
      "geometry": { "type": "LineString", "coordinates": [[72.888, 19.076], [72.890, 19.086]] }
    },
    {
      "type": "Feature",
      "properties": { "id": "R_009", "name": "Airport High-Level Connector", "speed_kmh": 65, "is_elevated": true },
      "geometry": { "type": "LineString", "coordinates": [[72.890, 19.086], [72.868, 19.088]] }
    }
  ]
}
