{
  "type": "FeatureCollection",
  "name": "MetroBasinDrainageNetwork",
  "features": [
    {
      "type": "Feature",
      "properties": { "id": "D_IN_MILAN_DIP", "type": "inlet", "elevation_m": 1.4, "storage_capacity_m3": 15.0, "street_location": "Milan Subway Low Catch Basin" },
      "geometry": { "type": "Point", "coordinates": [72.874, 19.073] }
    },
    {
      "type": "Feature",
      "properties": { "id": "D_MH_MILAN_SINK", "type": "manhole", "elevation_m": 1.3, "storage_capacity_m3": 45.0, "street_location": "Milan Subway Pumping Chamber" },
      "geometry": { "type": "Point", "coordinates": [72.873, 19.073] }
    },
    {
      "type": "Feature",
      "properties": { "id": "D_TRUNK_CENTRAL", "type": "junction", "elevation_m": 1.2, "storage_capacity_m3": 120.0, "street_location": "Central Storm Trunk Culvert" },
      "geometry": { "type": "Point", "coordinates": [72.860, 19.070] }
    },
    {
      "type": "Feature",
      "properties": { "id": "D_OUTFALL_BAY", "type": "outfall", "elevation_m": 1.0, "storage_capacity_m3": 500.0, "street_location": "Western Bay Tidal Outfall" },
      "geometry": { "type": "Point", "coordinates": [72.851, 19.065] }
    },
    {
      "type": "Feature",
      "properties": { "id": "PIPE_MILAN_OUT", "capacity_m3_s": 3.2, "diameter_m": 1.0, "length_m": 450 },
      "geometry": { "type": "LineString", "coordinates": [[72.873, 19.073], [72.860, 19.070]] }
    },
    {
      "type": "Feature",
      "properties": { "id": "PIPE_CENTRAL_TRUNK", "capacity_m3_s": 12.0, "diameter_m": 2.0, "length_m": 520 },
      "geometry": { "type": "LineString", "coordinates": [[72.860, 19.070], [72.851, 19.065]] }
    }
  ]
}
